{"type": "FeatureCollection", "features": [ {"type": "Feature", "properties": {"norad_id": 58662, "name": "TIANMU-1 21", "group": "weather", "lat": 3.7842255392986806, "lon": 110.64419780423803, "alt_km": 476.8465873578989, "timestamp": "2025-12-23T16:57:11.988616+00:00", "meta": {"OBJECT_NAME": "TIANMU-1 21", "OBJECT_ID": "2023-208C", "EPOCH": "2025-12-23T07:31:47.089344", "MEAN_MOTION": 15.31767759, "ECCENTRICITY": 0.00063519, "INCLINATION": 97.438, "RA_OF_ASC_NODE": 110.7452, "ARG_OF_PERICENTER": 216.1144, "MEAN_ANOMALY": 143.9669, "EPHEMERIS_TYPE": 0, "CLASSIFICATION_TYPE": "U", "NORAD_CAT_ID": 58662, "ELEMENT_SET_NO": 999, "REV_AT_EPOCH": 11061, "BSTAR": 0.00036693882, "MEAN_MOTION_DOT": 0.00011188, "MEAN_MOTION_DDOT": 0}, "tle": {"line1": "1 58662U 23208C   25357.31373946  .00011188  00000+0  36694-3 0  9999", "line2": "2 58662  97.4380 110.7452 0006351 216.1144 143.9669 15.31767759110612"}}, "geometry": {"type": "Point", "coordinates": [110.64419780423803, 3.7842255392986806]}}, {"type": "Feature", "properties": {"norad_id": 58663, "name": "TIANMU-1 22", "group": "weather", "lat": 49.74530832483964, "lon": -62.346041120041484, "alt_km": 478.340586213134, "timestamp": "2025-12-23T16:57:11.988627+00:00", "meta": {"OBJECT_NAME": "TIANMU-1 22", "OBJECT_ID": "2023-208D", "EPOCH": "2025-12-23T06:57:22.324608", "MEAN_MOTION": 15.27774908, "ECCENTRICITY": 0.00028789, "INCLINATION": 97.4387, "RA_OF_ASC_NODE": 108.3615, "ARG_OF_PERICENTER": 232.0139, "MEAN_ANOMALY": 128.0841, "EPHEMERIS_TYPE": 0, "CLASSIFICATION_TYPE": "U", "NORAD_CAT_ID": 58663, "ELEMENT_SET_NO": 999, "REV_AT_EPOCH": 11044, "BSTAR": 0.00035776445, "MEAN_MOTION_DOT": 9.635e-05, "MEAN_MOTION_DDOT": 0}, "tle": {"line1": "1 58663U 23208D   25357.28984172  .00009635  00000+0  35776-3 0  9999", "line2": "2 58663  97.4387 108.3615 0002878 232.0139 128.0841 15.27774908110441"}}, "geometry": {"type": "Point", "coordinates": [-62.346041120041484, 49.74530832483964]}}, {"type": "Feature", "properties": {"norad_id": 58700, "name": "TIANMU-1 15", "group": "weather", "lat": 46.91782042291854, "lon": 7.191632225516334, "alt_km": 489.5709077627598, "timestamp": "2025-12-23T16:57:11.988637+00:00", "meta": {"OBJECT_NAME": "TIANMU-1 15", "OBJECT_ID": "2024-004A", "EPOCH": "2025-12-23T06:55:19.627968", "MEAN_MOTION": 15.24539216, "ECCENTRICITY": 0.00060003, "INCLINATION": 97.4625, "RA_OF_ASC_NODE": 178.7182, "ARG_OF_PERICENTER": 245.2269, "MEAN_ANOMALY": 114.8345, "EPHEMERIS_TYPE": 0, "CLASSIFICATION_TYPE": "U", "NORAD_CAT_ID": 58700, "ELEMENT_SET_NO": 999, "REV_AT_EPOCH": 10895, "BSTAR": 0.0002775737, "MEAN_MOTION_DOT": 6.763e-05, "MEAN_MOTION_DDOT": 0}, "tle": {"line1": "1 58700U 24004A   25357.28842162  .00006763  00000+0  27757-3 0  9997", "line2": "2 58700  97.4625 178.7182 0006000 245.2269 114.8345 15.24539216108952"}}, "geometry": {"type": "Point", "coordinates": [7.191632225516334, 46.91782042291854]}}, {"type": "Feature", "properties": {"norad_id": 58701, "name": "TIANMU-1 16", "group": "weather", "lat": -34.85642668228415, "lon": -6.719150300718088, "alt_km": 495.82766578635164, "timestamp": "2025-12-23T16:57:11.988650+00:00", "meta": {"OBJECT_NAME": "TIANMU-1 16", "OBJECT_ID": "2024-004B", "EPOCH": "2025-12-23T06:33:39.823776", "MEAN_MOTION": 15.24567099, "ECCENTRICITY": 0.00043679, "INCLINATION": 97.4564, "RA_OF_ASC_NODE": 178.0836, "ARG_OF_PERICENTER": 247.9348, "MEAN_ANOMALY": 112.1426, "EPHEMERIS_TYPE": 0, "CLASSIFICATION_TYPE": "U", "NORAD_CAT_ID": 58701, "ELEMENT_SET_NO": 999, "REV_AT_EPOCH": 10895, "BSTAR": 0.00031932083, "MEAN_MOTION_DOT": 7.797e-05, "MEAN_MOTION_DDOT": 0}, "tle": {"line1": "1 58701U 24004B   25357.27337759  .00007797  00000+0  31932-3 0  9996", "line2": "2 58701  97.4564 178.0836 0004367 247.9348 112.1426 15.24567099108956"}}, "geometry": {"type": "Point", "coordinates": [-6.719150300718088, -34.85642668228415]}}, {"type": "Feature", "properties": {"norad_id": 58702, "name": "TIANMU-1 17", "group": "weather", "lat": -57.91027052350118, "lon": -169.00812939630202, "alt_km": 497.6371984849584, "timestamp": "2025-12-23T16:57:11.988660+00:00", "meta": {"OBJECT_NAME": "TIANMU-1 17", "OBJECT_ID": "2024-004C", "EPOCH": "2025-12-23T07:45:33.532128", "MEAN_MOTION": 15.24610935, "ECCENTRICITY": 0.00035445, "INCLINATION": 97.4598, "RA_OF_ASC_NODE": 178.5488, "ARG_OF_PERICENTER": 248.8751, "MEAN_ANOMALY": 111.2107, "EPHEMERIS_TYPE": 0, "CLASSIFICATION_TYPE": "U", "NORAD_CAT_ID": 58702, "ELEMENT_SET_NO": 999, "REV_AT_EPOCH": 10895, "BSTAR": 0.00031201242, "MEAN_MOTION_DOT": 7.626e-05, "MEAN_MOTION_DDOT": 0}, "tle": {"line1": "1 58702U 24004C   25357.32330477  .00007626  00000+0  31201-3 0  9993", "line2": "2 58702  97.4598 178.5488 0003544 248.8751 111.2107 15.24610935108950"}}, "geometry": {"type": "Point", "coordinates": [-169.00812939630202, -57.91027052350118]}}, {"type": "Feature", "properties": {"norad_id": 58703, "name": "TIANMU-1 18", "group": "weather", "lat": 31.897647514988638, "lon": 174.44892541290085, "alt_km": 491.92846050968274, "timestamp": "2025-12-23T16:57:11.988671+00:00", "meta": {"OBJECT_NAME": "TIANMU-1 18", "OBJECT_ID": "2024-004D", "EPOCH": "2025-12-23T07:21:40.708224", "MEAN_MOTION": 15.24594639, "ECCENTRICITY": 0.00029144, "INCLINATION": 97.4616, "RA_OF_ASC_NODE": 178.7298, "ARG_OF_PERICENTER": 245.9458, "MEAN_ANOMALY": 114.1475, "EPHEMERIS_TYPE": 0, "CLASSIFICATION_TYPE": "U", "NORAD_CAT_ID": 58703, "ELEMENT_SET_NO": 999, "REV_AT_EPOCH": 10895, "BSTAR": 0.00028875211, "MEAN_MOTION_DOT": 7.048e-05, "MEAN_MOTION_DDOT": 0}, "tle": {"line1": "1 58703U 24004D   25357.30672116  .00007048  00000+0  28875-3 0  9992", "line2": "2 58703  97.4616 178.7298 0002914 245.9458 114.1475 15.24594639108957"}}, "geometry": {"type": "Point", "coordinates": [174.44892541290085, 31.897647514988638]}}, {"type": "Feature", "properties": {"norad_id": 58990, "name": "INSAT-3DS", "group": "weather", "lat": -0.0092015611130655, "lon": 68.90031672061754, "alt_km": 35790.60766667304, "timestamp": "2025-12-23T16:57:11.988683+00:00", "meta": {"OBJECT_NAME": "INSAT-3DS", "OBJECT_ID": "2024-033A", "EPOCH": "2025-12-23T03:15:05.679360", "MEAN_MOTION": 1.00271675, "ECCENTRICITY": 0.00011636, "INCLINATION": 0.0568, "RA_OF_ASC_NODE": 100.6397, "ARG_OF_PERICENTER": 173.1489, "MEAN_ANOMALY": 309.0238, "EPHEMERIS_TYPE": 0, "CLASSIFICATION_TYPE": "U", "NORAD_CAT_ID": 58990, "ELEMENT_SET_NO": 999, "REV_AT_EPOCH": 4530, "BSTAR": 0, "MEAN_MOTION_DOT": -1.35e-06, "MEAN_MOTION_DDOT": 0}, "tle": {"line1": "1 58990U 24033A   25357.13548240 -.00000135  00000+0  00000+0 0  9990", "line2": "2 58990   0.0568 100.6397 0001163 173.1489 309.0238  1.00271675 45308"}}, "geometry": {"type": "Point", "coordinates": [68.90031672061754, -0.0092015611130655]}}, {"type": "Feature", "properties": {"norad_id": 59051, "name": "METEOR-M2 4", "group": "weather", "lat": 37.709952291099434, "lon": 141.22566492726463, "alt_km": 819.0916045926488, "timestamp": "2025-12-23T16:57:11.988734+00:00", "meta": {"OBJECT_NAME": "METEOR-M2 4", "OBJECT_ID": "2024-039A", "EPOCH": "2025-12-23T07:50:53.027232", "MEAN_MOTION": 14.22402754, "ECCENTRICITY": 0.00064834, "INCLINATION": 98.6782, "RA_OF_ASC_NODE": 314.0706, "ARG_OF_PERICENTER": 326.9138, "MEAN_ANOMALY": 33.1633, "EPHEMERIS_TYPE": 0, "CLASSIFICATION_TYPE": "U", "NORAD_CAT_ID": 59051, "ELEMENT_SET_NO": 999, "REV_AT_EPOCH": 9426, "BSTAR": 2.7619976e-05, "MEAN_MOTION_DOT": 1.8e-07, "MEAN_MOTION_DDOT": 0}, "tle": {"line1": "1 59051U 24039A   25357.32700263  .00000018  00000+0  27620-4 0  9992", "line2": "2 59051  98.6782 314.0706 0006483 326.9138  33.1633 14.22402754 94267"}}, "geometry": {"type": "Point", "coordinates": [141.22566492726463, 37.709952291099434]}}, {"type": "Feature", "properties": {"norad_id": 60133, "name": "GOES 19", "group": "weather", "lat": -0.0004226845244307575, "lon": -88.40653523328078, "alt_km": 35783.50586999393, "timestamp": "2025-12-23T16:57:11.988759+00:00", "meta": {"OBJECT_NAME": "GOES 19", "OBJECT_ID": "2024-119A", "EPOCH": "2025-12-23T05:35:35.570112", "MEAN_MOTION": 1.00272036, "ECCENTRICITY": 9.918e-05, "INCLINATION": 0.0127, "RA_OF_ASC_NODE": 251.6358, "ARG_OF_PERICENTER": 72.5515, "MEAN_ANOMALY": 136.5531, "EPHEMERIS_TYPE": 0, "CLASSIFICATION_TYPE": "U", "NORAD_CAT_ID": 60133, "ELEMENT_SET_NO": 999, "REV_AT_EPOCH": 520, "BSTAR": 0, "MEAN_MOTION_DOT": -2.27e-06, "MEAN_MOTION_DDOT": 0}, "tle": {"line1": "1 60133U 24119A   25357.23305058 -.00000227  00000+0  00000+0 0  9998", "line2": "2 60133   0.0127 251.6358 0000991  72.5515 136.5531  1.00272036  5201"}}, "geometry": {"type": "Point", "coordinates": [-88.40653523328078, -0.0004226845244307575]}}, {"type": "Feature", "properties": {"norad_id": 65815, "name": "FENGYUN 3H", "group": "weather", "lat": -75.12822223451084, "lon": -27.91708669580239, "alt_km": 833.5293746175548, "timestamp": "2025-12-23T16:57:11.988772+00:00", "meta": {"OBJECT_NAME": "FENGYUN 3H", "OBJECT_ID": "2025-219A", "EPOCH": "2025-12-23T03:47:23.852544", "MEAN_MOTION": 14.19907311, "ECCENTRICITY": 7.859e-05, "INCLINATION": 98.66, "RA_OF_ASC_NODE": 296.5227, "ARG_OF_PERICENTER": 107.0964, "MEAN_ANOMALY": 253.0299, "EPHEMERIS_TYPE": 0, "CLASSIFICATION_TYPE": "U", "NORAD_CAT_ID": 65815, "ELEMENT_SET_NO": 999, "REV_AT_EPOCH": 1240, "BSTAR": 6.2595142e-05, "MEAN_MOTION_DOT": 9e-07, "MEAN_MOTION_DDOT": 0}, "tle": {"line1": "1 65815U 25219A   25357.15791496  .00000090  00000+0  62595-4 0  9997", "line2": "2 65815  98.6600 296.5227 0000785 107.0964 253.0299 14.19907311 12409"}}, "geometry": {"type": "Point", "coordinates": [-27.91708669580239, -75.12822223451084]}}]}